{
    "links": {
        "self": "http://www.neowsapp.com/rest/v1/neo/54016689?api_key=iIulBulltgU6a56xZRHN4H3l9WmuAYTsLGpBGhQ2"
    },
    "id": "54016689",
    "neo_reference_id": "54016689",
    "name": "(2020 HN4)",
    "designation": "2020 HN4",
    "nasa_jpl_url": "http://ssd.jpl.nasa.gov/sbdb.cgi?sstr=54016689",
    "absolute_magnitude_h": 25.518,
    "estimated_diameter": {
        "kilometers": {
            "estimated_diameter_min": 0.0209389537,
            "estimated_diameter_max": 0.0468209239
        },
        "meters": {
            "estimated_diameter_min": 20.9389537006,
            "estimated_diameter_max": 46.8209238522
        },
        "miles": {
            "estimated_diameter_min": 0.0130108586,
            "estimated_diameter_max": 0.0290931643
        },
        "feet": {
            "estimated_diameter_min": 68.697356859,
            "estimated_diameter_max": 153.6119598114
        }
    },
    "is_potentially_hazardous_asteroid": false,
    "close_approach_data": [
        {
            "close_approach_date": "2020-04-15",
            "close_approach_date_full": "2020-Apr-15 03:34",
            "epoch_date_close_approach": 1586921640000,
            "relative_velocity": {
                "kilometers_per_second": "15.2043064515",
                "kilometers_per_hour": "54735.5032253939",
                "miles_per_hour": "34010.5131013565"
            },
            "miss_distance": {
                "astronomical": "0.0228052823",
                "lunar": "8.8712548147",
                "kilometers": "3411621.656828701",
                "miles": "2119883.3972540338"
            },
            "orbiting_body": "Earth"
        }
    ],
    "orbital_data": {
        "orbit_id": "3",
        "orbit_determination_date": "2020-04-30 06:32:51",
        "first_observation_date": "2020-04-21",
        "last_observation_date": "2020-04-29",
        "data_arc_in_days": 8,
        "observations_used": 44,
        "orbit_uncertainty": "8",
        "minimum_orbit_intersection": ".0227359",
        "jupiter_tisserand_invariant": "3.641",
        "epoch_osculation": "2458961.5",
        "eccentricity": ".6070135726136587",
        "semi_major_axis": "1.948063496339498",
        "inclination": "4.504502861846803",
        "ascending_node_longitude": "188.7105745537933",
        "orbital_period": "993.1231133310064",
        "perihelion_distance": ".7655625137482042",
        "perihelion_argument": "308.9342456545353",
        "aphelion_distance": "3.130564478930792",
        "perihelion_time": "2458910.782440618104",
        "mean_anomaly": "18.38475122811596",
        "mean_motion": ".3624928220556",
        "equinox": "J2000",
        "orbit_class": {
            "orbit_class_type": "APO",
            "orbit_class_description": "Near-Earth asteroid orbits which cross the Earth’s orbit similar to that of 1862 Apollo",
            "orbit_class_range": "a (semi-major axis) > 1.0 AU; q (perihelion) < 1.017 AU"
        }
    },
    "is_sentry_object": false
}